FLOCK 4BE-17            
1 60492U 24149AA  26188.03799507  .00012809  00000+0  31875-3 0  9992
2 60492  97.3763 271.5709 0003823 167.7115 192.4225 15.40397598105319
FLOCK 4BE-22            
1 60494U 24149AC  26187.67710767  .00014193  00000+0  33702-3 0  9993
2 60494  97.3724 271.4298 0004095 178.8391 181.2866 15.41793946105305
FLOCK 4BE-34            
1 60495U 24149AD  26188.53822036  .00011534  00000+0  27442-3 0  9993
2 60495  97.3776 273.1350 0004089 183.4731 176.6489 15.41785481105465
FLOCK 4BE-32            
1 60497U 24149AF  26187.71472326  .00014884  00000+0  34086-3 0  9990
2 60497  97.3711 271.8613 0004199 184.7187 175.4021 15.42872074105346
FLOCK 4BE-11            
1 60501U 24149AK  26188.02320227  .00013866  00000+0  30933-3 0  9999
2 60501  97.3689 272.4226 0004304 181.7733 178.3500 15.43670323105411
FLOCK 4BE-24            
1 60505U 24149AP  26187.68392779  .00016869  00000+0  37340-3 0  9990
2 60505  97.3708 272.3427 0004399 196.4371 163.6735 15.43858185105370
FLOCK 4BE-29            
1 60509U 24149AT  26187.22829132  .00039923  00000+0  84813-3 0  9995
2 60509  97.3804 273.3958 0002765 199.1193 160.9952 15.44905523105357
FLOCK 4BE-2             
1 60511U 24149AV  26188.15197968  .00049698  00000+0  73541-3 0  9992
2 60511  97.3822 276.0489 0004954 194.8620 165.2489 15.55133860105608
FLOCK 4BE-13            
1 60512U 24149AW  26188.46543940  .00010800  00000+0  25139-3 0  9995
2 60512  97.3713 273.0946 0004483 179.2541 180.8713 15.42462628105492
FLOCK 4BE-27            
1 60513U 24149AX  26188.47318609  .00006705  00000+0  20096-3 0  9995
2 60513  97.3819 270.3385 0003207 209.8407 150.2654 15.34820900105252
FLOCK 4BE-9             
1 60514U 24149AY  26187.69953900  .00013674  00000+0  32894-3 0  9990
2 60514  97.3784 272.1676 0002895 196.3338 163.7816 15.41414253105327
FLOCK 4BE-6             
1 60516U 24149BA  26187.67904778  .00012777  00000+0  32059-3 0  9995
2 60516  97.3782 271.4680 0003508 200.5229 159.5876 15.40148027105278
FLOCK 4BE-14            
1 60517U 24149BB  26187.70927834  .00013508  00000+0  32234-3 0  9996
2 60517  97.3686 271.6526 0004496 205.4810 154.6216 15.41655927105334
FLOCK 4BE-1             
1 60518U 24149BC  26187.18599024  .00019953  00000+0  44976-3 0  9991
2 60518  97.3772 272.4710 0004156 206.1703 153.9335 15.43283335105300
FLOCK 4BE-28            
1 60519U 24149BD  26187.23632372  .00025518  00000+0  52926-3 0  9990
2 60519  97.3771 273.3050 0004188 219.3554 140.7391 15.45698118105387
FLOCK 4BE-5             
1 60559U 24149CV  26187.70827036  .00013961  00000+0  34189-3 0  9999
2 60559  97.3835 271.9030 0003199 198.4527 161.6603 15.40868016105280
