{"fetched_at":"2026-07-07T18:29:08.171Z","source":"https://celestrak.org/NORAD/elements/gp.php?GROUP=planet&FORMAT=JSON","constellation":"superdove","records":[{"OBJECT_NAME":"FLOCK 4BE-17","OBJECT_ID":"2024-149AA","EPOCH":"2026-07-07T00:54:42.774048","CLASSIFICATION_TYPE":"U","MEAN_MOTION":15.40397598,"ECCENTRICITY":0.0003823,"INCLINATION":97.3763,"RA_OF_ASC_NODE":271.5709,"ARG_OF_PERICENTER":167.7115,"MEAN_ANOMALY":192.4225,"EPHEMERIS_TYPE":0,"NORAD_CAT_ID":60492,"ELEMENT_SET_NO":999,"REV_AT_EPOCH":10531,"BSTAR":0.00031875,"MEAN_MOTION_DOT":0.00012809,"MEAN_MOTION_DDOT":0},{"OBJECT_NAME":"FLOCK 4BE-22","OBJECT_ID":"2024-149AC","EPOCH":"2026-07-06T16:15:02.102688","CLASSIFICATION_TYPE":"U","MEAN_MOTION":15.41793946,"ECCENTRICITY":0.0004095,"INCLINATION":97.3724,"RA_OF_ASC_NODE":271.4298,"ARG_OF_PERICENTER":178.8391,"MEAN_ANOMALY":181.2866,"EPHEMERIS_TYPE":0,"NORAD_CAT_ID":60494,"ELEMENT_SET_NO":999,"REV_AT_EPOCH":10530,"BSTAR":0.00033702,"MEAN_MOTION_DOT":0.00014193,"MEAN_MOTION_DDOT":0},{"OBJECT_NAME":"FLOCK 4BE-34","OBJECT_ID":"2024-149AD","EPOCH":"2026-07-07T12:55:02.239104","CLASSIFICATION_TYPE":"U","MEAN_MOTION":15.41785481,"ECCENTRICITY":0.0004089,"INCLINATION":97.3776,"RA_OF_ASC_NODE":273.135,"ARG_OF_PERICENTER":183.4731,"MEAN_ANOMALY":176.6489,"EPHEMERIS_TYPE":0,"NORAD_CAT_ID":60495,"ELEMENT_SET_NO":999,"REV_AT_EPOCH":10546,"BSTAR":0.00027442,"MEAN_MOTION_DOT":0.00011534,"MEAN_MOTION_DDOT":0},{"OBJECT_NAME":"FLOCK 4BE-32","OBJECT_ID":"2024-149AF","EPOCH":"2026-07-06T17:09:12.089664","CLASSIFICATION_TYPE":"U","MEAN_MOTION":15.42872074,"ECCENTRICITY":0.0004199,"INCLINATION":97.3711,"RA_OF_ASC_NODE":271.8613,"ARG_OF_PERICENTER":184.7187,"MEAN_ANOMALY":175.4021,"EPHEMERIS_TYPE":0,"NORAD_CAT_ID":60497,"ELEMENT_SET_NO":999,"REV_AT_EPOCH":10534,"BSTAR":0.00034086,"MEAN_MOTION_DOT":0.00014884,"MEAN_MOTION_DDOT":0},{"OBJECT_NAME":"FLOCK 4BE-11","OBJECT_ID":"2024-149AK","EPOCH":"2026-07-07T00:33:24.676128","CLASSIFICATION_TYPE":"U","MEAN_MOTION":15.43670323,"ECCENTRICITY":0.0004304,"INCLINATION":97.3689,"RA_OF_ASC_NODE":272.4226,"ARG_OF_PERICENTER":181.7733,"MEAN_ANOMALY":178.35,"EPHEMERIS_TYPE":0,"NORAD_CAT_ID":60501,"ELEMENT_SET_NO":999,"REV_AT_EPOCH":10541,"BSTAR":0.00030933,"MEAN_MOTION_DOT":0.00013866,"MEAN_MOTION_DDOT":0},{"OBJECT_NAME":"FLOCK 4BE-24","OBJECT_ID":"2024-149AP","EPOCH":"2026-07-06T16:24:51.361056","CLASSIFICATION_TYPE":"U","MEAN_MOTION":15.43858185,"ECCENTRICITY":0.0004399,"INCLINATION":97.3708,"RA_OF_ASC_NODE":272.3427,"ARG_OF_PERICENTER":196.4371,"MEAN_ANOMALY":163.6735,"EPHEMERIS_TYPE":0,"NORAD_CAT_ID":60505,"ELEMENT_SET_NO":999,"REV_AT_EPOCH":10537,"BSTAR":0.0003734,"MEAN_MOTION_DOT":0.00016869,"MEAN_MOTION_DDOT":0},{"OBJECT_NAME":"FLOCK 4BE-29","OBJECT_ID":"2024-149AT","EPOCH":"2026-07-06T05:28:44.370048","CLASSIFICATION_TYPE":"U","MEAN_MOTION":15.44905523,"ECCENTRICITY":0.0002765,"INCLINATION":97.3804,"RA_OF_ASC_NODE":273.3958,"ARG_OF_PERICENTER":199.1193,"MEAN_ANOMALY":160.9952,"EPHEMERIS_TYPE":0,"NORAD_CAT_ID":60509,"ELEMENT_SET_NO":999,"REV_AT_EPOCH":10535,"BSTAR":0.00084812961,"MEAN_MOTION_DOT":0.00039923,"MEAN_MOTION_DDOT":0},{"OBJECT_NAME":"FLOCK 4BE-2","OBJECT_ID":"2024-149AV","EPOCH":"2026-07-07T03:38:51.044352","CLASSIFICATION_TYPE":"U","MEAN_MOTION":15.5513386,"ECCENTRICITY":0.0004954,"INCLINATION":97.3822,"RA_OF_ASC_NODE":276.0489,"ARG_OF_PERICENTER":194.862,"MEAN_ANOMALY":165.2489,"EPHEMERIS_TYPE":0,"NORAD_CAT_ID":60511,"ELEMENT_SET_NO":999,"REV_AT_EPOCH":10560,"BSTAR":0.00073541,"MEAN_MOTION_DOT":0.00049698,"MEAN_MOTION_DDOT":0},{"OBJECT_NAME":"FLOCK 4BE-13","OBJECT_ID":"2024-149AW","EPOCH":"2026-07-07T11:10:13.964160","CLASSIFICATION_TYPE":"U","MEAN_MOTION":15.42462628,"ECCENTRICITY":0.0004483,"INCLINATION":97.3713,"RA_OF_ASC_NODE":273.0946,"ARG_OF_PERICENTER":179.2541,"MEAN_ANOMALY":180.8713,"EPHEMERIS_TYPE":0,"NORAD_CAT_ID":60512,"ELEMENT_SET_NO":999,"REV_AT_EPOCH":10549,"BSTAR":0.00025139,"MEAN_MOTION_DOT":0.000108,"MEAN_MOTION_DDOT":0},{"OBJECT_NAME":"FLOCK 4BE-27","OBJECT_ID":"2024-149AX","EPOCH":"2026-07-07T11:21:23.278176","CLASSIFICATION_TYPE":"U","MEAN_MOTION":15.348209,"ECCENTRICITY":0.0003207,"INCLINATION":97.3819,"RA_OF_ASC_NODE":270.3385,"ARG_OF_PERICENTER":209.8407,"MEAN_ANOMALY":150.2654,"EPHEMERIS_TYPE":0,"NORAD_CAT_ID":60513,"ELEMENT_SET_NO":999,"REV_AT_EPOCH":10525,"BSTAR":0.00020096,"MEAN_MOTION_DOT":0.00006705,"MEAN_MOTION_DDOT":0},{"OBJECT_NAME":"FLOCK 4BE-9","OBJECT_ID":"2024-149AY","EPOCH":"2026-07-06T16:47:20.169600","CLASSIFICATION_TYPE":"U","MEAN_MOTION":15.41414253,"ECCENTRICITY":0.0002895,"INCLINATION":97.3784,"RA_OF_ASC_NODE":272.1676,"ARG_OF_PERICENTER":196.3338,"MEAN_ANOMALY":163.7816,"EPHEMERIS_TYPE":0,"NORAD_CAT_ID":60514,"ELEMENT_SET_NO":999,"REV_AT_EPOCH":10532,"BSTAR":0.00032894,"MEAN_MOTION_DOT":0.00013674,"MEAN_MOTION_DDOT":0},{"OBJECT_NAME":"FLOCK 4BE-6","OBJECT_ID":"2024-149BA","EPOCH":"2026-07-06T16:17:49.728192","CLASSIFICATION_TYPE":"U","MEAN_MOTION":15.40148027,"ECCENTRICITY":0.0003508,"INCLINATION":97.3782,"RA_OF_ASC_NODE":271.468,"ARG_OF_PERICENTER":200.5229,"MEAN_ANOMALY":159.5876,"EPHEMERIS_TYPE":0,"NORAD_CAT_ID":60516,"ELEMENT_SET_NO":999,"REV_AT_EPOCH":10527,"BSTAR":0.00032059,"MEAN_MOTION_DOT":0.00012777,"MEAN_MOTION_DDOT":0},{"OBJECT_NAME":"FLOCK 4BE-14","OBJECT_ID":"2024-149BB","EPOCH":"2026-07-06T17:01:21.648576","CLASSIFICATION_TYPE":"U","MEAN_MOTION":15.41655927,"ECCENTRICITY":0.0004496,"INCLINATION":97.3686,"RA_OF_ASC_NODE":271.6526,"ARG_OF_PERICENTER":205.481,"MEAN_ANOMALY":154.6216,"EPHEMERIS_TYPE":0,"NORAD_CAT_ID":60517,"ELEMENT_SET_NO":999,"REV_AT_EPOCH":10533,"BSTAR":0.00032234,"MEAN_MOTION_DOT":0.00013508,"MEAN_MOTION_DDOT":0},{"OBJECT_NAME":"FLOCK 4BE-1","OBJECT_ID":"2024-149BC","EPOCH":"2026-07-06T04:27:49.556736","CLASSIFICATION_TYPE":"U","MEAN_MOTION":15.43283335,"ECCENTRICITY":0.00041566,"INCLINATION":97.3772,"RA_OF_ASC_NODE":272.471,"ARG_OF_PERICENTER":206.1703,"MEAN_ANOMALY":153.9335,"EPHEMERIS_TYPE":0,"NORAD_CAT_ID":60518,"ELEMENT_SET_NO":999,"REV_AT_EPOCH":10530,"BSTAR":0.0004497566,"MEAN_MOTION_DOT":0.00019953,"MEAN_MOTION_DDOT":0},{"OBJECT_NAME":"FLOCK 4BE-28","OBJECT_ID":"2024-149BD","EPOCH":"2026-07-06T05:40:18.369408","CLASSIFICATION_TYPE":"U","MEAN_MOTION":15.45698118,"ECCENTRICITY":0.0004188,"INCLINATION":97.3771,"RA_OF_ASC_NODE":273.305,"ARG_OF_PERICENTER":219.3554,"MEAN_ANOMALY":140.7391,"EPHEMERIS_TYPE":0,"NORAD_CAT_ID":60519,"ELEMENT_SET_NO":999,"REV_AT_EPOCH":10538,"BSTAR":0.00052926,"MEAN_MOTION_DOT":0.00025518,"MEAN_MOTION_DDOT":0},{"OBJECT_NAME":"FLOCK 4BE-5","OBJECT_ID":"2024-149CV","EPOCH":"2026-07-06T16:59:54.559104","CLASSIFICATION_TYPE":"U","MEAN_MOTION":15.40868016,"ECCENTRICITY":0.0003199,"INCLINATION":97.3835,"RA_OF_ASC_NODE":271.903,"ARG_OF_PERICENTER":198.4527,"MEAN_ANOMALY":161.6603,"EPHEMERIS_TYPE":0,"NORAD_CAT_ID":60559,"ELEMENT_SET_NO":999,"REV_AT_EPOCH":10528,"BSTAR":0.00034189,"MEAN_MOTION_DOT":0.00013961,"MEAN_MOTION_DDOT":0}]}
